[{"OBJECT_NAME":"STARLINK-30765","OBJECT_ID":"2023-162B","EPOCH":"2026-03-09T22:00:01.999584","MEAN_MOTION":15.26758904,"ECCENTRICITY":0.00011718,"INCLINATION":43,"RA_OF_ASC_NODE":130.6826,"ARG_OF_PERICENTER":258.6577,"MEAN_ANOMALY":252.9442,"EPHEMERIS_TYPE":0,"CLASSIFICATION_TYPE":"U","NORAD_CAT_ID":58119,"ELEMENT_SET_NO":999,"REV_AT_EPOCH":577,"BSTAR":-0.00036166039,"MEAN_MOTION_DOT":-9.953e-5,"MEAN_MOTION_DDOT":0},{"OBJECT_NAME":"FLOCK 4G-14","OBJECT_ID":"2025-009BL","EPOCH":"2026-03-09T18:12:31.432032","MEAN_MOTION":15.27197201,"ECCENTRICITY":0.00030064,"INCLINATION":97.4064,"RA_OF_ASC_NODE":151.1836,"ARG_OF_PERICENTER":318.3639,"MEAN_ANOMALY":41.7371,"EPHEMERIS_TYPE":0,"CLASSIFICATION_TYPE":"U","NORAD_CAT_ID":62667,"ELEMENT_SET_NO":999,"REV_AT_EPOCH":6371,"BSTAR":0.00042675627,"MEAN_MOTION_DOT":0.0001131,"MEAN_MOTION_DDOT":0}]
